IRIDIUM 57 [-]          
1 25273U 98019B   23310.46663512  .00001034  00000+0  35680-3 0  9990
2 25273  86.4007  31.7845 0002111  93.1288 267.0150 14.34972927340332
IRIDIUM 63 [-]          
1 25286U 98021B   23310.57208010  .00001045  00000+0  35710-3 0  9993
2 25286  86.3970 328.7014 0002261  86.9090 273.2365 14.35476612339378
IRIDIUM 69 [-]          
1 25319U 98026A   23310.80563326  .00001208  00000+0  38018-3 0  9990
2 25319  86.3996 343.6362 0003643 128.0621 232.0907 14.39654571338615
IRIDIUM 71 [-]          
1 25320U 98026B   23310.57770921  .00000867  00000+0  26948-3 0  9996
2 25320  86.3981 338.5560 0001630 157.3536 202.7735 14.39982229338851
IRIDIUM 73 [-]          
1 25344U 98032C   23310.48461767  .00001570  00000+0  39954-3 0  9997
2 25344  86.4372 296.3700 0002427 105.2216 254.9257 14.50112823345204
IRIDIUM 82 [-]          
1 25467U 98051A   23310.60432182  .00025223  00000+0  14703-2 0  9992
2 25467  86.3982  30.9757 0142855 318.3071  40.7341 15.03548313334823
IRIDIUM 2 [-]           
1 25527U 98066A   23310.82629911  .00077345  00000+0  16665-2 0  9998
2 25527  85.5158  84.5057 0005143 102.5640 257.6190 15.44291504372619
